[{"OBJECT_NAME":"KAZEOSAT 1","OBJECT_ID":"2014-024A","EPOCH":"2026-03-09T22:32:10.650624","MEAN_MOTION":14.4203561,"ECCENTRICITY":0.0001038,"INCLINATION":98.3278,"RA_OF_ASC_NODE":143.8269,"ARG_OF_PERICENTER":83.2576,"MEAN_ANOMALY":276.8732,"EPHEMERIS_TYPE":0,"CLASSIFICATION_TYPE":"U","NORAD_CAT_ID":39731,"ELEMENT_SET_NO":999,"REV_AT_EPOCH":62425,"BSTAR":8.1032563e-5,"MEAN_MOTION_DOT":2.23e-6,"MEAN_MOTION_DDOT":0},{"OBJECT_NAME":"COSMOS 540","OBJECT_ID":"1972-104A","EPOCH":"2026-03-09T22:18:09.881856","MEAN_MOTION":14.37475414,"ECCENTRICITY":0.00187968,"INCLINATION":74.0789,"RA_OF_ASC_NODE":281.8264,"ARG_OF_PERICENTER":272.7333,"MEAN_ANOMALY":87.1669,"EPHEMERIS_TYPE":0,"CLASSIFICATION_TYPE":"U","NORAD_CAT_ID":6323,"ELEMENT_SET_NO":999,"REV_AT_EPOCH":78475,"BSTAR":5.5602782e-5,"MEAN_MOTION_DOT":1.41e-6,"MEAN_MOTION_DDOT":0}]
